COSMOS 2507 (RODNIK-S *)
1 40920U 15050A   26181.51380610  .00000112  00000+0  73876-3 0  9995
2 40920  82.4927  71.3734 0009603 327.7674  32.2818 12.42927230488510
COSMOS 2508 (RODNIK-S *)
1 40921U 15050B   26181.54944999  .00000080  00000+0  50564-3 0  9998
2 40921  82.4879  69.8512 0014611 358.9321   1.1725 12.42914600488501
COSMOS 2509 (RODNIK-S *)
1 40922U 15050C   26181.57011784  .00000195  00000+0  13375-2 0  9994
2 40922  82.4887  69.9421 0015275  15.4376 344.7167 12.42884507488545
LINGQIAO VIDEO A        
1 40959U 15057B   26181.56851113  .00000733  00000+0  10971-3 0  9996
2 40959  97.6618 175.7106 0015454 222.6678 137.3334 14.77410370577383
LINGQIAO VIDEO B        
1 40960U 15057C   26181.54422336  .00000503  00000+0  77166-4 0  9992
2 40960  97.6583 176.8473 0015649 222.7281 137.2714 14.77514877577425
JILIN-1                 
1 40961U 15057D   26181.55178560  .00000837  00000+0  12207-3 0  9995
2 40961  97.6510 180.2551 0015912 215.6262 144.3889 14.78181266577587
FOX-1A (AO-85)          
1 40967U 15058D   26181.56603293  .00002007  00000+0  18701-3 0  9995
2 40967  64.7741 237.4052 0131292  51.3883 309.8898 14.91023562115562
SINOD-D 1               
1 40968U 15058E   26181.51551323  .00003198  00000+0  26012-3 0  9993
2 40968  64.7731 217.1713 0119954  47.8242 313.2983 14.95981461118653
ELEKTRO-L 2             
1 41105U 15074A   26181.12866027 -.00000112  00000+0  00000+0 0  9991
2 41105   6.7257  70.3668 0000706 276.5342 323.0657  1.00271247 38632
DAMPE                   
1 41173U 15078A   26181.56870462  .00001073  00000+0  38568-4 0  9997
2 41173  97.4552 187.1015 0013124  35.3354 324.8754 15.30818996586593
ORBCOMM FM110           
1 41182U 15081D   26181.04766983  .00000729  00000+0  19041-3 0  9997
2 41182  47.0026 300.6348 0002767 151.8640 208.2396 14.58899856559505
ORBCOMM FM112           
1 41184U 15081F   26181.49718880  .00000347  00000+0  10947-3 0  9993
2 41184  46.9971 207.3067 0004130 269.8419  90.1993 14.58917672560897
ORBCOMM FM113           
1 41185U 15081G   26181.47424975  .00000280  00000+0  95535-4 0  9994
2 41185  46.9989 207.7982 0002628 270.1275  89.9309 14.58869516560870
ORBCOMM FM108           
1 41187U 15081J   26180.82012859  .00000543  00000+0  15104-3 0  9993
2 41187  47.0046 122.4680 0003210 268.1018  91.9500 14.58889060561925
ORBCOMM FM117           
1 41188U 15081K   26181.12816191  .00000489  00000+0  13967-3 0  9993
2 41188  47.0006 119.6420 0003699 273.2497  86.7965 14.58876871562015
ORBCOMM FM116           
1 41189U 15081L   26181.51934267  .00000314  00000+0  10265-3 0  9997
2 41189  47.0006 207.5827 0000898 181.1835 178.9049 14.58896557560888
HORYU-4                 
1 41340U 16012D   26180.82153158  .01724866  25695-2  11623-2 0  9990
2 41340  30.9811 345.1963 0009916 343.8353  16.1997 16.16169270572849
ZIYUAN 3-02 (ZY 3-02)   
1 41556U 16033A   26181.60823387  .00004997  00000+0  22601-3 0  9991
2 41556  97.3836 257.1243 0012730 238.6293 121.3698 15.21303987560021
CARTOSAT-2C             
1 41599U 16040A   26181.56273361  .00007167  00000+0  34225-3 0  9999
2 41599  97.4483 241.3567 0010458  91.3022 268.9410 15.19299653555744
LAPAN-A3                
1 41603U 16040E   26181.57105221  .00003321  00000+0  10582-3 0  9993
2 41603  97.1489 177.2776 0009211 337.8976  22.1869 15.33189728556862
GAOFEN-3                
1 41727U 16049A   26181.54330657  .00000101  00000+0  43870-4 0  9999
2 41727  98.4006 189.1273 0001645  93.9780 266.1598 14.42217440520578
CAS-2T & KS-1Q          
1 41847U 16066G   26181.19207671  .00001573  00000+0  22694-3 0  9995
2 41847  98.3819 256.7796 0342845  90.1573 273.8901 14.44735570506671
YUNHAI-1 01             
1 41857U 16068A   26181.57760275  .00000423  00000+0  17269-3 0  9999
2 41857  98.5839 192.4575 0005457  22.7891 337.3534 14.32432448503744
RESOURCESAT-2A          
1 41877U 16074A   26181.51380546  .00000235  00000+0  12740-3 0  9991
2 41877  98.7532 254.9092 0003121  58.0989 302.0492 14.21605505496198
